SAUDISAT 1A             
1 26545U 00057A   08198.78570224 -.00000023  00000-0  15931-4 0   175
2 26545  64.5584  70.9985 0032554 332.2695  27.6694 14.80518392421544
UNISAT                  
1 26547U 00057C   08198.06746347 -.00000135  00000-0  17905-5 0   368
2 26547  64.5571  61.2591 0033346 343.4984  16.5007 14.82254720421698
SAUDISAT 1B             
1 26549U 00057E   08198.42136899 -.00000085  00000-0  80309-5 0   930
2 26549  64.5585  86.9086 0033697 340.3861  19.5961 14.79375740421196
MOZHAYETS               
1 27560U 02054B   08198.05709638  .00000008  00000-0  11972-4 0  7153
2 27560  97.9681  51.1495 0043000 176.8463 183.3030 14.54975948297876
SAUDISAT 1C             
1 27607U 02058C   08197.89269135 -.00000001  00000-0  22029-4 0  6522
2 27607  64.5594 326.4595 0086308 273.9144  85.2099 14.71368020299191
UNISAT 2                
1 27608U 02058D   08198.76519634 -.00000022  00000-0  17923-4 0  6702
2 27608  64.5603 294.0282 0069970 266.5402  92.7697 14.74356911299946
SAUDISAT 2              
1 28371U 04025F   08198.82095228 -.00000017  00000-0  65091-5 0  6019
2 28371  98.0730 251.5538 0026665   8.2387 351.9230 14.52896651214672
UNISAT 3                
1 28373U 04025H   08198.11288852  .00000067  00000-0  31401-4 0  1533
2 28373  98.0662 227.4307 0072145  49.6388 311.1093 14.43278808213669
SSETI EXPRESS (XO-53)   
1 28894U 05043E   08198.30717609  .00000005  00000-0  10614-4 0  2121
2 28894  98.0938  91.5018 0017237 323.7710  36.2329 14.59625893144856
SAUDISAT 3              
1 31118U 07012B   08198.80806018 -.00000014  00000-0  60291-5 0  4153
2 31118  98.0495 272.6812 0014493 215.1775 144.8462 14.67993596 66974
